BEIDOU-3 G3             
1 45807U 20040A   23336.56346187 -.00000343  00000+0  00000+0 0  9996
2 45807   0.5797   4.4160 0010085 306.1770  73.9359  1.00267595 12775
APSTAR 6D               
1 45863U 20045A   23336.57688338 -.00000307  00000+0  00000+0 0  9991
2 45863   0.0622  92.7526 0000765 150.9589 169.1091  1.00273181 12557
KOREASAT 116            
1 45920U 20048A   23336.56450615 -.00000352  00000+0  00000+0 0  9992
2 45920   0.0172 303.1386 0001159 299.4070 148.0156  1.00275277 12338
EXPRESS 103             
1 45985U 20053A   23336.56059013 -.00000270  00000+0  00000+0 0  9995
2 45985   0.0189 317.5707 0000149 226.2492 185.6512  1.00272322 12349
EXPRESS 80              
1 45986U 20053B   23335.58286238 -.00000127  00000+0  00000+0 0  9999
2 45986   0.0157 310.0589 0000328  73.1117 336.8449  1.00271580 12325
BSAT-4B                 
1 46112U 20056A   23336.56328782 -.00000340  00000+0  00000+0 0  9991
2 46112   0.0716 117.6810 0002460  73.8063 192.2963  1.00269987 12088
MEV-2                   
1 46113U 20056B   23334.60715119 -.00000002  00000+0  00000+0 0  9994
2 46113   0.0148 316.5757 0001028 311.4678  18.7626  1.00270976 71308
GALAXY 30 (G-30)        
1 46114U 20056C   23336.51655660  .00000048  00000+0  00000+0 0  9990
2 46114   0.0125 305.5574 0002317 300.7997 245.7150  1.00271869 11991
GAOFEN-13 01            
1 46610U 20071A   23336.56485424 -.00000352  00000+0  00000+0 0  9991
2 46610   0.1108  76.9469 0012112 290.7263  24.5626  1.00273374 11617
TIANTONG-1 2            
1 46916U 20082A   23336.56633362 -.00000346  00000+0  00000+0 0  9991
2 46916   2.8325 293.1921 0002813 343.2934 123.5293  1.00273522 11354
LUCAS (JDRS-1)          
1 47202U 20089A   23336.55945883 -.00000225  00000+0  00000+0 0  9996
2 47202   0.0141 328.4914 0002783 305.8113  89.0371  1.00268772 11110
SXM-7                   
1 47240U 20096A   23334.30386889 -.00000196  00000+0  00000+0 0  9999
2 47240   0.0226 358.4588 0001593 179.5655 275.0569  1.00270690 10994
CMS-01                  
1 47256U 20099A   23335.48352520 -.00000156  00000+0  00000+0 0  9990
2 47256   0.1310  93.4844 0008818 170.9973  62.6930  1.00271517 10881
TURKSAT 5A              
1 47306U 21001A   23336.04618397  .00000164  00000+0  00000+0 0  9998
2 47306   0.0250  67.3163 0000328 247.1896 163.6813  1.00271356 10661
TIANTONG-1 3            
1 47321U 21003A   23336.55763135 -.00000146  00000+0  00000+0 0  9995
2 47321   3.2828 309.9936 0005052 313.4157  89.9997  1.00274154 10665
TJS-6                   
1 47613U 21010A   23336.55327236  .00000053  00000+0  00000+0 0  9991
2 47613   0.1373 284.4222 0001275 341.6154 182.7289  1.00270729 10512
SBIRS GEO-5 (USA 315)   
1 48618U 21042A   23336.32410594  .00000123  00000+0  00000+0 0  9995
2 48618   6.4653 325.4832 0002735 284.5412 318.4832  1.00272768  9453
FENGYUN 4B              
1 48808U 21047A   23336.57688338 -.00000312  00000+0  00000+0 0  9992
2 48808   0.0704 299.8933 0003530 109.5233   2.2344  1.00282084  9287
SXM-8                   
1 48838U 21049A   23335.10202834 -.00000195  00000+0  00000+0 0  9997
2 48838   0.0137 324.5520 0002327  41.4391  15.2193  1.00268364  9281
TIANLIAN 1-05           
1 49011U 21063A   23335.97169250  .00000118  00000+0  00000+0 0  9990
2 49011   0.8138 279.3002 0003903 324.0057 193.8577  1.00273282  8773
STAR ONE D2             
1 49055U 21069A   23335.45298021 -.00000255  00000+0  00000+0 0  9999
2 49055   0.0042  95.0896 0002318 127.5308 300.5208  1.00270283  8625
EUTELSAT QUANTUM        
1 49056U 21069B   23336.55093060  .00000136  00000+0  00000+0 0  9995
2 49056   0.0345  50.7625 0002833 211.6658  54.7502  1.00271665  8625
CHINASAT 2E (ZX 2E)     
1 49062U 21071A   23336.56093823 -.00000281  00000+0  00000+0 0  9995
2 49062   0.0167 299.3881 0001192 291.6966 140.0829  1.00271283  8746
TJS-7                   
1 49115U 21077A   23336.52160391 -.00000112  00000+0  00000+0 0  9994
2 49115   0.2066 281.8825 0001591 288.8976 308.5599  1.00268437   273
CHINASAT 9B             
1 49125U 21080A   23336.56163440 -.00000302  00000+0  00000+0 0  9992
2 49125   0.0367  93.7405 0003330 142.4207 138.5948  1.00271253  8339
SHIJIAN-21 (SJ-21)      
1 49330U 21094A   23336.37896469 -.00000128  00000+0  00000+0 0  9994
2 49330   9.4414  46.6486 0078181  28.3747 208.2439  1.00398381  7955
SES-17                  
1 49332U 21095A   23335.36285449 -.00000263  00000+0  00000+0 0  9995
2 49332   0.0122  25.4104 0001284 234.5838 233.5020  1.00268811  8530
SYRACUSE 4A             
1 49333U 21095B   23336.49910355  .00000145  00000+0  00000+0 0  9990
2 49333   0.0092   2.0483 0001478 240.7058  53.5191  1.00270809  8669
QZS-1R                  
1 49336U 21096A   23335.67688376 -.00000251  00000+0  00000+0 0  9997
2 49336  35.5389  93.5642 0752058 270.8707  84.1209  1.00262734  7700
CHINASAT 1D (ZX 1D)     
1 49505U 21114A   23336.58243757 -.00000326  00000+0  00000+0 0  9990
2 49505   0.1143 267.5014 0001925 339.5942 163.9338  1.00271424  7530
STPSAT-6                
1 49817U 21118A   23336.51916727 -.00000035  00000+0  00000+0 0  9994
2 49817   0.0348  96.1980 0000773 163.6913 246.4903  1.00273164  7262
LDPE-1                  
1 49818U 21118B   23336.57549337 -.00000074  00000+0  00000+0 0  9993
2 49818   1.7204  90.4907 0006505 202.3664 140.4178  1.00615071  7322
EXPRESS AMU-7           
1 50001U 21123A   23335.40275845 -.00000233  00000+0  00000+0 0  9993
2 50001   0.0150 320.0898 0000269 180.1006 219.8256  1.00271733  7236
EXPRESS AMU-3           
1 50002U 21123B   23336.51637593 -.00000311  00000+0  00000+0 0  9996
2 50002   0.0145 317.8183 0000469 251.7851 150.4078  1.00271761  7218
TIANLIAN 2-02           
1 50005U 21124A   23336.57547102 -.00000003  00000+0  00000+0 0  9990
2 50005   1.1847 276.1718 0002919 348.1444 185.0340  1.00272657  7316
TURKSAT 5B              
1 50212U 21126A   23336.47817955  .00000156  00000+0  00000+0 0  9995
2 50212   0.0659 345.7385 0004329 311.3724 348.1166  1.00273554  6996
INMARSAT 6-F1           
1 50319U 21128A   23336.34007698 -.00000162  00000+0  00000+0 0  9994
2 50319   0.0109 343.3623 0001194 343.3514 310.4220  1.00272244  6956
SHIYAN 12 01 (SY-12 01) 
1 50321U 21129A   23336.54988633  .00000161  00000+0  00000+0 0  9995
2 50321   1.2718  94.7064 0004189 178.8642  38.0241  1.00084997  7193
SHIYAN 12 02 (SY-12 02) 
1 50322U 21129B   23336.62465744 -.00000352  00000+0  00000+0 0  9991
2 50322   1.2708  94.7167 0004297 165.4187 149.6324  1.00438159  7197
TJS-9                   
1 50574U 21135A   23336.57688338 -.00000289  00000+0  00000+0 0  9996
2 50574   0.0635  63.1833 0003408 180.5771 172.2946  1.00269100  7136
USA 324                 
1 51280U 22006A   23311.39538591 -.00000161  00000+0  00000+0 0  9996
2 51280   1.2524  91.6861 0002078 235.0523  17.9300  1.00154325  6579
USA 325                 
1 51281U 22006B   23327.40733334  .00000028  00000+0  00000+0 0  9999
2 51281   0.2183  90.6562 0002839 188.9459 104.5968  1.00273459  6737
GOES 18                 
1 51850U 22021A   23335.50067126  .00000106  00000+0  00000+0 0  9994
2 51850   0.0378 139.0182 0000483 106.2429 228.0773  1.00272197  6477
CHINASAT 6D (ZX 6D)     
1 52255U 22038A   23335.45792381 -.00000345  00000+0  00000+0 0  9990
2 52255   0.0501 273.4770 0002812 344.8601 101.6453  1.00274223  6115
NILESAT 301             
1 52817U 22061A   23334.24782623 -.00000049  00000+0  00000+0 0  9995
2 52817   0.0455   3.5564 0003767 258.9536 248.5676  1.00273216  5413
CMS-02 (GSAT 24)        
1 52903U 22067A   23336.55797944 -.00000154  00000+0  00000+0 0  9992
2 52903   0.0596 271.1550 0002968 216.2658 227.5823  1.00270788  5318
MEASAT 3D               
1 52904U 22067B   23336.55963287 -.00000232  00000+0  00000+0 0  9995
2 52904   0.0291 333.7190 0003126 303.4952  86.9065  1.00273543  5349
SES-22                  
1 52933U 22071A   23336.51455507  .00000099  00000+0  00000+0 0  9999
2 52933   0.0249  63.4973 0001330 198.3269 219.5176  1.00273420  5247
WFOV (USA 332)          
1 52940U 22073A   23336.56520233 -.00000352  00000+0  00000+0 0  9996
2 52940   1.3130  90.9132 0002972 119.2754 183.7443  1.00272602  5064
TIANLIAN 2-03           
1 53100U 22078A   23335.55474908  .00000082  00000+0  00000+0 0  9994
2 53100   1.7399 279.9901 0001403 345.8577  14.6358  1.00273051  5241
SBIRS GEO-6 (USA 336)   
1 53355U 22092A   23336.35336965 -.00000303  00000+0  00000+0 0  9998
2 53355   4.9864 310.9449 0002569   4.3298  18.0299  1.00308541  4939
EUTELSAT KONNECT VHTS   
1 53765U 22110A   23336.20188044  .00000027  00000+0  00000+0 0  9993
2 53765   0.0575 101.0367 0002837 137.3815 267.7522  1.00270266  4493
CHINASAT 1E (ZX 1E)     
1 53813U 22112A   23336.55763135 -.00000140  00000+0  00000+0 0  9994
2 53813   0.3826 278.0398 0002983 340.7799  94.5082  1.00271922  4555
SES-20                  
1 53960U 22123A   23333.92063383 -.00000092  00000+0  00000+0 0  9991
2 53960   0.0054  66.6767 0000883  63.1582 167.0423  1.00271098  4214
SES-21                  
1 53961U 22123B   23334.43805799  .00000078  00000+0  00000+0 0  9997
2 53961   0.0169  15.3483 0000920 226.4905 213.9249  1.00267999  4237
GALAXY 33 (G-33)        
1 54026U 22128A   23336.52606557  .00000090  00000+0  00000+0 0  9992
2 54026   0.0192  38.7290 0001967 210.9433 237.8215  1.00272467  4455
GALAXY 34 (G-34)        
1 54027U 22128B   23333.65049955  .00000067  00000+0  00000+0 0  9991
2 54027   0.0211 314.9529 0001489 287.9968 290.5390  1.00274152  4585
ANGOSAT 2               
1 54033U 22131A   23336.54597030  .00000146  00000+0  00000+0 0  9993
2 54033   0.0301  87.0998 0001853 231.6448 331.9316  1.00273392  4161
EUTELSAT HOTBIRD 13F    
1 54048U 22134A   23335.61284104  .00000097  00000+0  00000+0 0  9999
2 54048   0.0606 293.0633 0006333 344.7268  26.0508  1.00272137  4132
